STARLINK-31401          
1 59417U 24064V   26068.28431770 -.00000960  00000+0 -25367-4 0  9999
2 59417  43.0046  51.5445 0001413 251.7508 108.3190 15.27579016108998
ARCSTONE                
1 64540U 25135N   26068.88991918  .00026427  00000+0  94900-3 0  9995
2 64540  97.4495 185.9194 0004120 166.7863 193.3485 15.28638458 39847
